{
  "type": "FeatureCollection",
  "features": [
    {
      "type": "Feature",
      "properties": {
        "norad_id": 27954,
        "name": "GALAXY 13 (HORIZONS-1)",
        "group": "intelsat",
        "lat": 0.5070305390303567,
        "lon": 116.45154649778782,
        "alt_km": 35794.89828435993,
        "timestamp": "2025-12-24T11:32:59.671521+00:00",
        "meta_object_name": "GALAXY 13 (HORIZONS-1)",
        "meta_object_id": "2003-044A",
        "meta_epoch": "2025-12-23T17:33:18.870624",
        "meta_mean_motion": 1.0027125,
        "meta_eccentricity": 0.00023412,
        "meta_inclination": 0.9652,
        "meta_ra_of_asc_node": 86.3258,
        "meta_arg_of_pericenter": 182.915,
        "meta_mean_anomaly": 296.5742,
        "meta_ephemeris_type": 0,
        "meta_classification_type": "U",
        "meta_norad_cat_id": 27954,
        "meta_element_set_no": 999,
        "meta_rev_at_epoch": 4481,
        "meta_bstar": 0,
        "meta_mean_motion_dot": 1.53e-06,
        "meta_mean_motion_ddot": 0,
        "tle_line1": "1 27954U 03044A   25357.73146841  .00000153  00000+0  00000+0 0  9991",
        "tle_line2": "2 27954   0.9652  86.3258 0002341 182.9150 296.5742  1.00271250 44819"
      },
      "geometry": {
        "type": "Point",
        "coordinates": [
          116.45154649778782,
          0.5070305390303567
        ]
      }
    },
    {
      "type": "Feature",
      "properties": {
        "norad_id": 28358,
        "name": "INTELSAT 10-02",
        "group": "intelsat",
        "lat": -0.024846734274071643,
        "lon": -94.4836567812623,
        "alt_km": 35784.34464654284,
        "timestamp": "2025-12-24T11:32:59.671543+00:00",
        "meta_object_name": "INTELSAT 10-02",
        "meta_object_id": "2004-022A",
        "meta_epoch": "2025-12-24T00:36:38.599200",
        "meta_mean_motion": 1.00265898,
        "meta_eccentricity": 0.000127,
        "meta_inclination": 0.015,
        "meta_ra_of_asc_node": 52.7398,
        "meta_arg_of_pericenter": 263.9976,
        "meta_mean_anomaly": 144.2692,
        "meta_ephemeris_type": 0,
        "meta_classification_type": "U",
        "meta_norad_cat_id": 28358,
        "meta_element_set_no": 999,
        "meta_rev_at_epoch": 7880,
        "meta_bstar": 0,
        "meta_mean_motion_dot": 9e-08,
        "meta_mean_motion_ddot": 0,
        "tle_line1": "1 28358U 04022A   25358.02544675  .00000009  00000+0  00000+0 0  9997",
        "tle_line2": "2 28358   0.0150  52.7398 0001270 263.9976 144.2692  1.00265898 78800"
      },
      "geometry": {
        "type": "Point",
        "coordinates": [
          -94.4836567812623,
          -0.024846734274071643
        ]
      }
    },
    {
      "type": "Feature",
      "properties": {
        "norad_id": 28626,
        "name": "XM-3 (RHYTHM)",
        "group": "intelsat",
        "lat": -0.1959183632570088,
        "lon": -35.03908815085403,
        "alt_km": 36153.16622047232,
        "timestamp": "2025-12-24T11:32:59.671556+00:00",
        "meta_object_name": "XM-3 (RHYTHM)",
        "meta_object_id": "2005-008A",
        "meta_epoch": "2025-12-24T02:18:38.732832",
        "meta_mean_motion": 0.98949998,
        "meta_eccentricity": 0.0002114,
        "meta_inclination": 0.2022,
        "meta_ra_of_asc_node": 82.1634,
        "meta_arg_of_pericenter": 274.9803,
        "meta_mean_anomaly": 190.7017,
        "meta_ephemeris_type": 0,
        "meta_classification_type": "U",
        "meta_norad_cat_id": 28626,
        "meta_element_set_no": 999,
        "meta_rev_at_epoch": 4086,
        "meta_bstar": 0,
        "meta_mean_motion_dot": 9.9e-07,
        "meta_mean_motion_ddot": 0,
        "tle_line1": "1 28626U 05008A   25358.09628163  .00000099  00000+0  00000+0 0  9991",
        "tle_line2": "2 28626   0.2022  82.1634 0002114 274.9803 190.7017  0.98949998 40865"
      },
      "geometry": {
        "type": "Point",
        "coordinates": [
          -35.03908815085403,
          -0.1959183632570088
        ]
      }
    },
    {
      "type": "Feature",
      "properties": {
        "norad_id": 28659,
        "name": "DIRECTV 8",
        "group": "intelsat",
        "lat": 0.03185719995456845,
        "lon": 147.43214731785892,
        "alt_km": 35794.99379827241,
        "timestamp": "2025-12-24T11:32:59.671570+00:00",
        "meta_object_name": "DIRECTV 8",
        "meta_object_id": "2005-019A",
        "meta_epoch": "2025-12-23T17:41:55.546944",
        "meta_mean_motion": 1.00271595,
        "meta_eccentricity": 0.00029818,
        "meta_inclination": 0.018,
        "meta_ra_of_asc_node": 23.2581,
        "meta_arg_of_pericenter": 259.0434,
        "meta_mean_anomaly": 316.6613,
        "meta_ephemeris_type": 0,
        "meta_classification_type": "U",
        "meta_norad_cat_id": 28659,
        "meta_element_set_no": 999,
        "meta_rev_at_epoch": 7531,
        "meta_bstar": 0,
        "meta_mean_motion_dot": 2.2e-07,
        "meta_mean_motion_ddot": 0,
        "tle_line1": "1 28659U 05019A   25357.73744846  .00000022  00000+0  00000+0 0  9992",
        "tle_line2": "2 28659   0.0180  23.2581 0002981 259.0434 316.6613  1.00271595 75311"
      },
      "geometry": {
        "type": "Point",
        "coordinates": [
          147.43214731785892,
          0.03185719995456845
        ]
      }
    },
    {
      "type": "Feature",
      "properties": {
        "norad_id": 28702,
        "name": "GALAXY 28 (G-28)",
        "group": "intelsat",
        "lat": 2.8378718749679464,
        "lon": 177.77724157293207,
        "alt_km": 35787.80201400561,
        "timestamp": "2025-12-24T11:32:59.671583+00:00",
        "meta_object_name": "GALAXY 28 (G-28)",
        "meta_object_id": "2005-022A",
        "meta_epoch": "2025-12-20T00:49:30.482112",
        "meta_mean_motion": 1.00271047,
        "meta_eccentricity": 0.00029384,
        "meta_inclination": 2.8382,
        "meta_ra_of_asc_node": 81.1982,
        "meta_arg_of_pericenter": 194.0723,
        "meta_mean_anomaly": 97.2981,
        "meta_ephemeris_type": 0,
        "meta_classification_type": "U",
        "meta_norad_cat_id": 28702,
        "meta_element_set_no": 999,
        "meta_rev_at_epoch": 5017,
        "meta_bstar": 0,
        "meta_mean_motion_dot": -1.65e-06,
        "meta_mean_motion_ddot": 0,
        "tle_line1": "1 28702U 05022A   25354.03438058 -.00000165  00000+0  00000+0 0  9999",
        "tle_line2": "2 28702   2.8382  81.1982 0002938 194.0723  97.2981  1.00271047 50172"
      },
      "geometry": {
        "type": "Point",
        "coordinates": [
          177.77724157293207,
          2.8378718749679464
        ]
      }
    },
    {
      "type": "Feature",
      "properties": {
        "norad_id": 29236,
        "name": "GALAXY 16 (G-16)",
        "group": "intelsat",
        "lat": -0.017307236957568205,
        "lon": 167.45708540281734,
        "alt_km": 35789.11559150245,
        "timestamp": "2025-12-24T11:32:59.671597+00:00",
        "meta_object_name": "GALAXY 16 (G-16)",
        "meta_object_id": "2006-023A",
        "meta_epoch": "2025-12-23T16:05:04.821216",
        "meta_mean_motion": 1.00271325,
        "meta_eccentricity": 0.00025095,
        "meta_inclination": 0.0451,
        "meta_ra_of_asc_node": 194.2073,
        "meta_arg_of_pericenter": 78.9639,
        "meta_mean_anomaly": 321.5434,
        "meta_ephemeris_type": 0,
        "meta_classification_type": "U",
        "meta_norad_cat_id": 29236,
        "meta_element_set_no": 999,
        "meta_rev_at_epoch": 7121,
        "meta_bstar": 0,
        "meta_mean_motion_dot": -1.06e-06,
        "meta_mean_motion_ddot": 0,
        "tle_line1": "1 29236U 06023A   25357.67019469 -.00000106  00000+0  00000+0 0  9993",
        "tle_line2": "2 29236   0.0451 194.2073 0002509  78.9639 321.5434  1.00271325 71212"
      },
      "geometry": {
        "type": "Point",
        "coordinates": [
          167.45708540281734,
          -0.017307236957568205
        ]
      }
    },
    {
      "type": "Feature",
      "properties": {
        "norad_id": 29494,
        "name": "DIRECTV 9S",
        "group": "intelsat",
        "lat": 1.9614368870338497,
        "lon": 165.2603381301557,
        "alt_km": 35790.56927175204,
        "timestamp": "2025-12-24T11:32:59.671610+00:00",
        "meta_object_name": "DIRECTV 9S",
        "meta_object_id": "2006-043A",
        "meta_epoch": "2025-12-23T22:55:25.671936",
        "meta_mean_motion": 1.00271975,
        "meta_eccentricity": 0.000293,
        "meta_inclination": 1.9673,
        "meta_ra_of_asc_node": 83.094,
        "meta_arg_of_pericenter": 194.8793,
        "meta_mean_anomaly": 57.4163,
        "meta_ephemeris_type": 0,
        "meta_classification_type": "U",
        "meta_norad_cat_id": 29494,
        "meta_element_set_no": 999,
        "meta_rev_at_epoch": 4962,
        "meta_bstar": 0,
        "meta_mean_motion_dot": -9.3e-07,
        "meta_mean_motion_ddot": 0,
        "tle_line1": "1 29494U 06043A   25357.95515824 -.00000093  00000+0  00000+0 0  9993",
        "tle_line2": "2 29494   1.9673  83.0940 0002930 194.8793  57.4163  1.00271975 49624"
      },
      "geometry": {
        "type": "Point",
        "coordinates": [
          165.2603381301557,
          1.9614368870338497
        ]
      }
    }
  ]
}